GNOMES-1                
1 46266U 20059B   26068.53916665  .00004080  00000+0  33422-3 0  9991
2 46266  97.8057 278.7760 0005451 357.8604   2.2595 14.99848479300657
STARLINK-5642           
1 55430U 23014AR  26068.50938534 -.00000285  00000+0 -16058-4 0  9996
2 55430  69.9989 104.8346 0002864 270.1716  89.9115 14.98330981171041
